[{"OBJECT_NAME":"STARLINK-32276","OBJECT_ID":"2024-155W","EPOCH":"2025-12-22T18:51:03.721536","MEAN_MOTION":15.3019515,"ECCENTRICITY":0.00011242,"INCLINATION":53.161,"RA_OF_ASC_NODE":127.0814,"ARG_OF_PERICENTER":81.3467,"MEAN_ANOMALY":278.7661,"EPHEMERIS_TYPE":0,"CLASSIFICATION_TYPE":"U","NORAD_CAT_ID":60944,"ELEMENT_SET_NO":999,"REV_AT_EPOCH":7461,"BSTAR":3.8567727e-5,"MEAN_MOTION_DOT":7.83e-6,"MEAN_MOTION_DDOT":0},{"OBJECT_NAME":"STARLINK-11289 [DTC]","OBJECT_ID":"2024-158B","EPOCH":"2025-12-22T21:07:03.894816","MEAN_MOTION":15.69702615,"ECCENTRICITY":0.00012505,"INCLINATION":53.1593,"RA_OF_ASC_NODE":299.7028,"ARG_OF_PERICENTER":81.7509,"MEAN_ANOMALY":278.3651,"EPHEMERIS_TYPE":0,"CLASSIFICATION_TYPE":"U","NORAD_CAT_ID":60991,"ELEMENT_SET_NO":999,"REV_AT_EPOCH":7553,"BSTAR":-7.988239e-6,"MEAN_MOTION_DOT":-1.556e-5,"MEAN_MOTION_DDOT":0},{"OBJECT_NAME":"STARLINK-11282 [DTC]","OBJECT_ID":"2024-158C","EPOCH":"2025-12-23T02:03:18.832032","MEAN_MOTION":15.69691961,"ECCENTRICITY":0.00010043,"INCLINATION":53.1598,"RA_OF_ASC_NODE":298.8585,"ARG_OF_PERICENTER":93.6216,"MEAN_ANOMALY":266.4916,"EPHEMERIS_TYPE":0,"CLASSIFICATION_TYPE":"U","NORAD_CAT_ID":60992,"ELEMENT_SET_NO":999,"REV_AT_EPOCH":7556,"BSTAR":-7.478097e-6,"MEAN_MOTION_DOT":-1.493e-5,"MEAN_MOTION_DDOT":0},{"OBJECT_NAME":"STARLINK-11283 [DTC]","OBJECT_ID":"2024-158D","EPOCH":"2025-12-23T01:21:04.539456","MEAN_MOTION":15.69699246,"ECCENTRICITY":0.00013925,"INCLINATION":53.1582,"RA_OF_ASC_NODE":299.3949,"ARG_OF_PERICENTER":42.5429,"MEAN_ANOMALY":317.5697,"EPHEMERIS_TYPE":0,"CLASSIFICATION_TYPE":"U","NORAD_CAT_ID":60993,"ELEMENT_SET_NO":999,"REV_AT_EPOCH":7555,"BSTAR":-9.401902e-6,"MEAN_MOTION_DOT":-1.727e-5,"MEAN_MOTION_DDOT":0},{"OBJECT_NAME":"STARLINK-11267 [DTC]","OBJECT_ID":"2024-158E","EPOCH":"2025-12-23T05:49:04.557504","MEAN_MOTION":15.69679228,"ECCENTRICITY":9.101e-5,"INCLINATION":53.159,"RA_OF_ASC_NODE":298.4272,"ARG_OF_PERICENTER":81.8069,"MEAN_ANOMALY":278.3052,"EPHEMERIS_TYPE":0,"CLASSIFICATION_TYPE":"U","NORAD_CAT_ID":60994,"ELEMENT_SET_NO":999,"REV_AT_EPOCH":7558,"BSTAR":-1.7626888e-5,"MEAN_MOTION_DOT":-2.72e-5,"MEAN_MOTION_DDOT":0},{"OBJECT_NAME":"STARLINK-11269 [DTC]","OBJECT_ID":"2024-158F","EPOCH":"2025-12-23T05:41:58.562304","MEAN_MOTION":15.69718999,"ECCENTRICITY":0.00012422,"INCLINATION":53.1604,"RA_OF_ASC_NODE":298.3898,"ARG_OF_PERICENTER":69.4728,"MEAN_ANOMALY":290.6423,"EPHEMERIS_TYPE":0,"CLASSIFICATION_TYPE":"U","NORAD_CAT_ID":60995,"ELEMENT_SET_NO":999,"REV_AT_EPOCH":7557,"BSTAR":1.2915212e-5,"MEAN_MOTION_DOT":9.77e-6,"MEAN_MOTION_DDOT":0},{"OBJECT_NAME":"STARLINK-11281 [DTC]","OBJECT_ID":"2024-158G","EPOCH":"2025-12-23T00:59:53.097792","MEAN_MOTION":15.69694423,"ECCENTRICITY":0.00013189,"INCLINATION":53.1593,"RA_OF_ASC_NODE":299.2973,"ARG_OF_PERICENTER":81.4023,"MEAN_ANOMALY":278.7145,"EPHEMERIS_TYPE":0,"CLASSIFICATION_TYPE":"U","NORAD_CAT_ID":60996,"ELEMENT_SET_NO":999,"REV_AT_EPOCH":7554,"BSTAR":-1.3016408e-5,"MEAN_MOTION_DOT":-2.164e-5,"MEAN_MOTION_DDOT":0},{"OBJECT_NAME":"STARLINK-11260 [DTC]","OBJECT_ID":"2024-158H","EPOCH":"2025-12-23T03:58:52.759488","MEAN_MOTION":15.69692766,"ECCENTRICITY":0.00015014,"INCLINATION":53.1601,"RA_OF_ASC_NODE":276.3355,"ARG_OF_PERICENTER":128.865,"MEAN_ANOMALY":231.2502,"EPHEMERIS_TYPE":0,"CLASSIFICATION_TYPE":"U","NORAD_CAT_ID":60997,"ELEMENT_SET_NO":999,"REV_AT_EPOCH":7593,"BSTAR":-1.3228738e-5,"MEAN_MOTION_DOT":-2.19e-5,"MEAN_MOTION_DDOT":0},{"OBJECT_NAME":"STARLINK-11287 [DTC]","OBJECT_ID":"2024-158J","EPOCH":"2025-12-23T00:52:49.058688","MEAN_MOTION":15.6969978,"ECCENTRICITY":0.00014563,"INCLINATION":53.1578,"RA_OF_ASC_NODE":299.2635,"ARG_OF_PERICENTER":85.6233,"MEAN_ANOMALY":274.4952,"EPHEMERIS_TYPE":0,"CLASSIFICATION_TYPE":"U","NORAD_CAT_ID":60998,"ELEMENT_SET_NO":999,"REV_AT_EPOCH":7554,"BSTAR":-1.7754654e-5,"MEAN_MOTION_DOT":-2.738e-5,"MEAN_MOTION_DDOT":0},{"OBJECT_NAME":"STARLINK-11270 [DTC]","OBJECT_ID":"2024-158K","EPOCH":"2025-12-23T05:20:47.931072","MEAN_MOTION":15.69720941,"ECCENTRICITY":0.00018815,"INCLINATION":53.1576,"RA_OF_ASC_NODE":298.2952,"ARG_OF_PERICENTER":124.1887,"MEAN_ANOMALY":235.931,"EPHEMERIS_TYPE":0,"CLASSIFICATION_TYPE":"U","NORAD_CAT_ID":60999,"ELEMENT_SET_NO":999,"REV_AT_EPOCH":7557,"BSTAR":0.0016246158,"MEAN_MOTION_DOT":0.00201169,"MEAN_MOTION_DDOT":0},{"OBJECT_NAME":"STARLINK-11290 [DTC]","OBJECT_ID":"2024-158L","EPOCH":"2025-12-23T05:13:43.701888","MEAN_MOTION":15.69707826,"ECCENTRICITY":9.638e-5,"INCLINATION":53.1591,"RA_OF_ASC_NODE":298.2551,"ARG_OF_PERICENTER":106.5839,"MEAN_ANOMALY":253.5285,"EPHEMERIS_TYPE":0,"CLASSIFICATION_TYPE":"U","NORAD_CAT_ID":61000,"ELEMENT_SET_NO":999,"REV_AT_EPOCH":7564,"BSTAR":-2.264649e-6,"MEAN_MOTION_DOT":-8.63e-6,"MEAN_MOTION_DDOT":0},{"OBJECT_NAME":"STARLINK-11274 [DTC]","OBJECT_ID":"2024-158M","EPOCH":"2025-12-22T19:49:30.189504","MEAN_MOTION":15.69703369,"ECCENTRICITY":0.00022035,"INCLINATION":53.1582,"RA_OF_ASC_NODE":300.075,"ARG_OF_PERICENTER":85.7463,"MEAN_ANOMALY":274.3807,"EPHEMERIS_TYPE":0,"CLASSIFICATION_TYPE":"U","NORAD_CAT_ID":61001,"ELEMENT_SET_NO":999,"REV_AT_EPOCH":7551,"BSTAR":-2.026218e-6,"MEAN_MOTION_DOT":-8.36e-6,"MEAN_MOTION_DDOT":0},{"OBJECT_NAME":"STARLINK-11288 [DTC]","OBJECT_ID":"2024-158N","EPOCH":"2025-12-23T03:20:51.452160","MEAN_MOTION":15.69704908,"ECCENTRICITY":9.785e-5,"INCLINATION":53.1593,"RA_OF_ASC_NODE":298.4745,"ARG_OF_PERICENTER":74.0057,"MEAN_ANOMALY":286.1069,"EPHEMERIS_TYPE":0,"CLASSIFICATION_TYPE":"U","NORAD_CAT_ID":61002,"ELEMENT_SET_NO":999,"REV_AT_EPOCH":7556,"BSTAR":2.024563e-6,"MEAN_MOTION_DOT":-3.43e-6,"MEAN_MOTION_DDOT":0},{"OBJECT_NAME":"STARLINK-32279","OBJECT_ID":"2024-158P","EPOCH":"2025-12-22T15:19:10.281216","MEAN_MOTION":15.30184622,"ECCENTRICITY":0.0001224,"INCLINATION":53.1589,"RA_OF_ASC_NODE":63.4792,"ARG_OF_PERICENTER":121.8929,"MEAN_ANOMALY":238.2191,"EPHEMERIS_TYPE":0,"CLASSIFICATION_TYPE":"U","NORAD_CAT_ID":61003,"ELEMENT_SET_NO":999,"REV_AT_EPOCH":7385,"BSTAR":-5.2424988e-5,"MEAN_MOTION_DOT":-1.911e-5,"MEAN_MOTION_DDOT":0},{"OBJECT_NAME":"STARLINK-32336","OBJECT_ID":"2024-158Q","EPOCH":"2025-12-22T12:04:59.581632","MEAN_MOTION":15.30189609,"ECCENTRICITY":0.0001781,"INCLINATION":53.1608,"RA_OF_ASC_NODE":64.0551,"ARG_OF_PERICENTER":134.5243,"MEAN_ANOMALY":225.5903,"EPHEMERIS_TYPE":0,"CLASSIFICATION_TYPE":"U","NORAD_CAT_ID":61004,"ELEMENT_SET_NO":999,"REV_AT_EPOCH":7383,"BSTAR":-5.9695215e-5,"MEAN_MOTION_DOT":-2.126e-5,"MEAN_MOTION_DDOT":0},{"OBJECT_NAME":"STARLINK-32284","OBJECT_ID":"2024-158R","EPOCH":"2025-12-22T12:15:37.029600","MEAN_MOTION":15.30192074,"ECCENTRICITY":9.053e-5,"INCLINATION":53.1625,"RA_OF_ASC_NODE":64.1102,"ARG_OF_PERICENTER":87.1964,"MEAN_ANOMALY":272.914,"EPHEMERIS_TYPE":0,"CLASSIFICATION_TYPE":"U","NORAD_CAT_ID":61005,"ELEMENT_SET_NO":999,"REV_AT_EPOCH":7376,"BSTAR":7.2422451e-5,"MEAN_MOTION_DOT":1.786e-5,"MEAN_MOTION_DDOT":0}]
