STARLINK-32276          
1 60944U 24155W   25356.78545974  .00000783  00000+0  38568-4 0  9991
2 60944  53.1610 127.0814 0001124  81.3467 278.7661 15.30195150 74616
STARLINK-11289 [DTC]    
1 60991U 24158B   25356.87990619 -.00001556  00000+0 -79882-5 0  9992
2 60991  53.1593 299.7028 0001250  81.7509 278.3651 15.69702615 75532
STARLINK-11282 [DTC]    
1 60992U 24158C   25357.08563463 -.00001493  00000+0 -74781-5 0  9993
2 60992  53.1598 298.8585 0001004  93.6216 266.4916 15.69691961 75566
STARLINK-11283 [DTC]    
1 60993U 24158D   25357.05630254 -.00001727  00000+0 -94019-5 0  9990
2 60993  53.1582 299.3949 0001392  42.5429 317.5697 15.69699246 75556
STARLINK-11267 [DTC]    
1 60994U 24158E   25357.24241386 -.00002720  00000+0 -17627-4 0  9999
2 60994  53.1590 298.4272 0000910  81.8069 278.3052 15.69679228 75586
STARLINK-11269 [DTC]    
1 60995U 24158F   25357.23748336  .00000977  00000+0  12915-4 0  9991
2 60995  53.1604 298.3898 0001242  69.4728 290.6423 15.69718999 75576
STARLINK-11281 [DTC]    
1 60996U 24158G   25357.04158678 -.00002164  00000+0 -13016-4 0  9990
2 60996  53.1593 299.2973 0001318  81.4023 278.7145 15.69694423 75544
STARLINK-11260 [DTC]    
1 60997U 24158H   25357.16588842 -.00002190  00000+0 -13229-4 0  9999
2 60997  53.1601 276.3355 0001501 128.8650 231.2502 15.69692766 75933
STARLINK-11287 [DTC]    
1 60998U 24158J   25357.03667892 -.00002738  00000+0 -17755-4 0  9995
2 60998  53.1578 299.2635 0001456  85.6233 274.4952 15.69699780 75546
STARLINK-11270 [DTC]    
1 60999U 24158K   25357.22277698  .00201169  00000+0  16246-2 0  9997
2 60999  53.1576 298.2952 0001881 124.1887 235.9310 15.69720941 75579
STARLINK-11290 [DTC]    
1 61000U 24158L   25357.21786692 -.00000863  00000+0 -22646-5 0  9993
2 61000  53.1591 298.2551 0000963 106.5839 253.5285 15.69707826 75648
STARLINK-11274 [DTC]    
1 61001U 24158M   25356.82604386 -.00000836  00000+0 -20262-5 0  9991
2 61001  53.1582 300.0750 0002203  85.7463 274.3807 15.69703369 75517
STARLINK-11288 [DTC]    
1 61002U 24158N   25357.13948440 -.00000343  00000+0  20246-5 0  9993
2 61002  53.1593 298.4745 0000978  74.0057 286.1069 15.69704908 75567
STARLINK-32279          
1 61003U 24158P   25356.63831344 -.00001911  00000+0 -52425-4 0  9998
2 61003  53.1589  63.4792 0001224 121.8929 238.2191 15.30184622 73856
STARLINK-32336          
1 61004U 24158Q   25356.50346738 -.00002126  00000+0 -59695-4 0  9998
2 61004  53.1608  64.0551 0001781 134.5243 225.5903 15.30189609 73835
STARLINK-32284          
1 61005U 24158R   25356.51084525  .00001786  00000+0  72422-4 0  9995
2 61005  53.1625  64.1102 0000905  87.1964 272.9140 15.30192074 73769
